ONEWEB-0607             
1 54671U 22166AF  25051.84788048  .00000004  00000+0 -20810-4 0  9999
2 54671  87.9352 339.9050 0001623  81.6651 278.4667 13.21829423108416
ONEWEB-0608             
1 54672U 22166AG  25051.55141275  .00000020  00000+0  17897-4 0  9991
2 54672  87.9335 339.9740 0001289  78.3490 281.7789 13.21827894107923
ONEWEB-0610             
1 54673U 22166AH  25051.30540118  .00000056  00000+0  10484-3 0  9997
2 54673  87.9352 340.0310 0001292  76.9897 283.1381 13.21828460107797
ONEWEB-0611             
1 54674U 22166AJ  25051.52618761  .00000097  00000+0  20301-3 0  9996
2 54674  87.9353 339.9849 0002122  80.9799 279.1575 13.21827409107817
ONEWEB-0612             
1 54675U 22166AK  25051.53879416  .00000034  00000+0  50885-4 0  9996
2 54675  87.9351 339.9616 0001535  79.5973 280.5334 13.21828508107802
ONEWEB-0615             
1 54676U 22166AL  25051.51987993  .00000114  00000+0  24429-3 0  9998
2 54676  87.9354 339.9912 0001611  85.3023 274.8295 13.21827223107817
ONEWEB-0655             
1 54677U 22166AM  25051.49305668  .00000098  00000+0  20624-3 0  9993
2 54677  87.9351 339.9999 0001700  90.7951 269.3378 13.21828165107805
ONEWEB-0659             
1 54678U 22166AN  25051.51041456  .00000142  00000+0  31282-3 0  9991
2 54678  87.9350 339.9995 0001880  74.3858 285.7483 13.21828286107896
